{
    "links": {
        "self": "http://www.neowsapp.com/rest/v1/neo/3478349?api_key=iIulBulltgU6a56xZRHN4H3l9WmuAYTsLGpBGhQ2"
    },
    "id": "3478349",
    "neo_reference_id": "3478349",
    "name": "(2009 WB52)",
    "designation": "2009 WB52",
    "nasa_jpl_url": "http://ssd.jpl.nasa.gov/sbdb.cgi?sstr=3478349",
    "absolute_magnitude_h": 25.7,
    "estimated_diameter": {
        "kilometers": {
            "estimated_diameter_min": 0.0192555078,
            "estimated_diameter_max": 0.0430566244
        },
        "meters": {
            "estimated_diameter_min": 19.2555078188,
            "estimated_diameter_max": 43.0566244241
        },
        "miles": {
            "estimated_diameter_min": 0.0119648141,
            "estimated_diameter_max": 0.0267541378
        },
        "feet": {
            "estimated_diameter_min": 63.1742402722,
            "estimated_diameter_max": 141.2618956756
        }
    },
    "is_potentially_hazardous_asteroid": false,
    "close_approach_data": [
        {
            "close_approach_date": "2009-11-24",
            "close_approach_date_full": "2009-Nov-24 19:45",
            "epoch_date_close_approach": 1259091900000,
            "relative_velocity": {
                "kilometers_per_second": "7.5858929258",
                "kilometers_per_hour": "27309.2145330027",
                "miles_per_hour": "16968.8838857983"
            },
            "miss_distance": {
                "astronomical": "0.0855749234",
                "lunar": "33.2886452026",
                "kilometers": "12801826.266053158",
                "miles": "7954685.9780352604"
            },
            "orbiting_body": "Earth"
        }
    ],
    "orbital_data": {
        "orbit_id": "6",
        "orbit_determination_date": "2017-04-06 08:58:59",
        "first_observation_date": "2009-11-22",
        "last_observation_date": "2009-11-23",
        "data_arc_in_days": 1,
        "observations_used": 22,
        "orbit_uncertainty": "8",
        "minimum_orbit_intersection": ".0853858",
        "jupiter_tisserand_invariant": "4.101",
        "epoch_osculation": "2455158.5",
        "eccentricity": ".3728275433607462",
        "semi_major_axis": "1.698486581189567",
        "inclination": "11.97907580999052",
        "ascending_node_longitude": "57.50122947159213",
        "orbital_period": "808.5215632422021",
        "perihelion_distance": "1.065244001693468",
        "perihelion_argument": "15.97837367935187",
        "aphelion_distance": "2.331729160685665",
        "perihelion_time": "2455170.935739107889",
        "mean_anomaly": "354.462898353771",
        "mean_motion": ".4452571413882722",
        "equinox": "J2000",
        "orbit_class": {
            "orbit_class_type": "AMO",
            "orbit_class_description": "Near-Earth asteroid orbits similar to that of 1221 Amor",
            "orbit_class_range": "1.017 AU < q (perihelion) < 1.3 AU"
        }
    },
    "is_sentry_object": false
}